NORAD_CAT_ID,OBJECT_NAME,OBJECT_TYPE,EPOCH,MEAN_MOTION,ECCENTRICITY,INCLINATION,RA_OF_ASC_NODE,ARG_OF_PERICENTER,MEAN_ANOMALY,BSTAR,MEAN_MOTION_DOT,MEAN_MOTION_DDOT,TLE_LINE0,TLE_LINE1,TLE_LINE2,SEMIMAJOR_AXIS,PERIOD,APOGEE,PERIGEE,DECAYED
56488.0,STARLINK-6204,PAYLOAD,2024-08-08 04:07:35,14.98335058,0.0002478,70.0012,123.2101,259.5695,100.5185,0.00034894,4.073e-05,0.0,0 STARLINK-6204,1 56488U 23064AS  24221.17194422  .00004073  00000-0  34894-3 0  9992,2 56488  70.0012 123.2101 0002478 259.5695 100.5185 14.98335058 69578,6950.177,96.107,573.765,570.32,0.0
56488.0,STARLINK-6204,PAYLOAD,2024-08-08 21:45:05,14.98337375,0.000235,70.001,121.3576,243.924,116.1678,1.0574e-05,3.3e-07,0.0,0 STARLINK-6204,1 56488U 23064AS  24221.90630809  .00000033  00000-0  10574-4 0  9999,2 56488  70.0010 121.3576 0002350 243.9240 116.1678 14.98337375 70041,6950.17,96.107,573.668,570.402,0.0
56488.0,STARLINK-6204,PAYLOAD,2024-08-08 23:21:13,14.98341941,0.0002786,69.9997,121.1849,261.1529,98.9315,-0.00012303,-1.561e-05,0.0,0 STARLINK-6204,1 56488U 23064AS  24221.97306726 -.00001561  00000-0 -12303-3 0  9994,2 56488  69.9997 121.1849 0002786 261.1529  98.9315 14.98341941 69696,6950.156,96.106,573.957,570.085,0.0
56488.0,STARLINK-6204,PAYLOAD,2024-08-09 10:34:10,14.98330729,0.0002365,70.0012,120.0113,266.5538,93.5351,-9.8517e-05,-1.268e-05,0.0,0 STARLINK-6204,1 56488U 23064AS  24222.44039492 -.00001268  00000-0 -98517-4 0  9996,2 56488  70.0012 120.0113 0002365 266.5538  93.5351 14.98330729 70124,6950.191,96.107,573.699,570.412,0.0
56488.0,STARLINK-6204,PAYLOAD,2024-08-09 21:47:06,14.98333405,0.0002766,70.0011,118.8335,259.3029,100.7818,-6.7135e-05,-8.94e-06,0.0,0 STARLINK-6204,1 56488U 23064AS  24222.90770985 -.00000894  00000-0 -67135-4 0  9992,2 56488  70.0011 118.8335 0002766 259.3029 100.7818 14.98333405 69833,6950.182,96.107,573.97,570.125,0.0
56488.0,STARLINK-6204,PAYLOAD,2024-08-10 02:35:29,14.98339535,0.000271,70.0008,118.3275,262.5817,97.5034,6.1619e-06,-1.9e-07,0.0,0 STARLINK-6204,1 56488U 23064AS  24223.10798386 -.00000019  00000-0  61619-5 0  9990,2 56488  70.0008 118.3275 0002710 262.5817  97.5034 14.98339535 70225,6950.163,96.106,573.912,570.145,0.0
56488.0,STARLINK-6204,PAYLOAD,2024-08-10 21:49:06,14.98333598,0.0002816,70.0006,116.3073,261.5565,98.5275,7.8092e-05,8.39e-06,0.0,0 STARLINK-6204,1 56488U 23064AS  24223.90910392  .00000839  00000-0  78092-4 0  9992,2 56488  70.0006 116.3073 0002816 261.5565  98.5275 14.98333598 69985,6950.182,96.107,574.004,570.09,0.0
56488.0,STARLINK-6204,PAYLOAD,2024-08-11 02:37:30,14.98331771,0.0002982,70.0012,115.8024,268.6036,91.4781,0.00030246,3.518e-05,0.0,0 STARLINK-6204,1 56488U 23064AS  24224.10938058  .00003518  00000-0  30246-3 0  9999,2 56488  70.0012 115.8024 0002982 268.6036  91.4781 14.98331771 70377,6950.187,96.107,574.125,569.98,0.0
56488.0,STARLINK-6204,PAYLOAD,2024-08-11 21:51:07,14.98332073,0.0002806,70.0011,113.7807,273.3099,86.7739,0.00011174,1.241e-05,0.0,0 STARLINK-6204,1 56488U 23064AS  24224.91050459  .00001241  00000-0  11174-3 0  9998,2 56488  70.0011 113.7807 0002806 273.3099  86.7739 14.98332073 70139,6950.186,96.107,574.002,570.101,0.0
56488.0,STARLINK-6204,PAYLOAD,2024-08-12 02:39:31,14.98336507,0.0002821,70.0012,113.2771,267.678,92.4056,0.00014713,1.663e-05,0.0,0 STARLINK-6204,1 56488U 23064AS  24225.11078029  .00001663  00000-0  14713-3 0  9994,2 56488  70.0012 113.2771 0002821 267.6780  92.4056 14.98336507 70520,6950.173,96.107,573.998,570.077,0.0
56488.0,STARLINK-6204,PAYLOAD,2024-08-12 21:53:08,14.98338697,0.0002631,70.0014,111.2582,282.9278,77.1587,0.00013176,1.48e-05,0.0,0 STARLINK-6204,1 56488U 23064AS  24225.91189842  .00001480  00000-0  13176-3 0  9997,2 56488  70.0014 111.2582 0002631 282.9278  77.1587 14.98338697 70285,6950.166,96.106,573.86,570.202,0.0
56488.0,STARLINK-6204,PAYLOAD,2024-08-13 02:41:30,14.98356175,0.0003064,69.9999,110.753,269.5131,90.5677,0.00024864,2.877e-05,0.0,0 STARLINK-6204,1 56488U 23064AS  24226.11216174  .00002877  00000-0  24864-3 0  9996,2 56488  69.9999 110.7530 0003064 269.5131  90.5677 14.98356175 70674,6950.112,96.105,574.106,569.847,0.0
56488.0,STARLINK-6204,PAYLOAD,2024-08-13 09:06:05,14.98317188,0.0003525,70.0014,110.0785,267.2085,92.8671,-0.00044416,-5.387e-05,0.0,0 STARLINK-6204,1 56488U 23064AS  24226.37922463 -.00005387  00000-0 -44416-3 0  9995,2 56488  70.0014 110.0785 0003525 267.2085  92.8671 14.98317188 70710,6950.233,96.108,574.547,569.648,0.0
56488.0,STARLINK-6204,PAYLOAD,2024-08-14 02:43:37,14.98286421,0.0002097,70.0048,108.23,268.2701,91.8217,-0.00011031,-1.407e-05,0.0,0 STARLINK-6204,1 56488U 23064AS  24227.11363239 -.00001407  00000-0 -11031-3 0  9994,2 56488  70.0048 108.2300 0002097 268.2701  91.8217 14.98286421 70820,6950.328,96.11,573.65,570.735,0.0
56488.0,STARLINK-6204,PAYLOAD,2024-08-14 09:08:07,14.98327148,0.0003289,69.9999,107.5543,265.8898,94.1885,-8.6418e-05,-1.124e-05,0.0,0 STARLINK-6204,1 56488U 23064AS  24227.38064080 -.00001124  00000-0 -86418-4 0  9993,2 56488  69.9999 107.5543 0003289 265.8898  94.1885 14.98327148 70860,6950.202,96.107,574.353,569.781,0.0
56488.0,STARLINK-6204,PAYLOAD,2024-08-14 18:44:55,14.98341659,0.0003005,69.9997,106.5451,262.0584,98.0234,-1.026e-05,-2.15e-06,0.0,0 STARLINK-6204,1 56488U 23064AS  24227.78119450 -.00000215  00000-0 -10260-4 0  9991,2 56488  69.9997 106.5451 0003005 262.0584  98.0234 14.98341659 70923,6950.157,96.106,574.11,569.933,0.0
56488.0,STARLINK-6204,PAYLOAD,2024-08-14 21:57:11,14.98342315,0.0003005,69.9998,106.2083,262.4339,97.6479,1.053e-05,3.3e-07,0.0,0 STARLINK-6204,1 56488U 23064AS  24227.91471340  .00000033  00000-0  10530-4 0  9991,2 56488  69.9998 106.2083 0003005 262.4339  97.6479 14.98342315 70582,6950.155,96.106,574.108,569.931,0.0
56488.0,STARLINK-6204,PAYLOAD,2024-08-15 09:10:07,14.98346009,0.0003046,69.9995,105.0293,264.5365,95.5447,0.00011305,1.257e-05,0.0,0 STARLINK-6204,1 56488U 23064AS  24228.38202688  .00001257  00000-0  11305-3 0  9999,2 56488  69.9995 105.0293 0003046 264.5365  95.5447 14.98346009 70650,6950.143,96.106,574.125,569.891,0.0
56488.0,STARLINK-6204,PAYLOAD,2024-08-15 21:59:12,14.98357494,0.0003115,69.9991,103.6821,284.9433,75.1381,3.3086e-05,3.02e-06,0.0,0 STARLINK-6204,1 56488U 23064AS  24228.91611244  .00000302  00000-0  33086-4 0  9991,2 56488  69.9991 103.6821 0003115 284.9433  75.1381 14.98357494 71096,6950.108,96.105,574.138,569.808,0.0
56488.0,STARLINK-6204,PAYLOAD,2024-08-16 01:11:26,14.983895,0.0003269,69.9991,103.3456,278.4706,81.6082,-0.00043355,-5.27e-05,0.0,0 STARLINK-6204,1 56488U 23064AS  24229.04961757 -.00005270  00000-0 -43355-3 0  9993,2 56488  69.9991 103.3456 0003269 278.4706  81.6082 14.98389500 71114,6950.009,96.103,574.146,569.602,0.0
56488.0,STARLINK-6204,PAYLOAD,2024-08-17 01:13:28,14.98346236,0.000308,70.001,100.8216,259.7306,100.3505,4.2697e-05,4.17e-06,0.0,0 STARLINK-6204,1 56488U 23064AS  24230.05102513  .00000417  00000-0  42697-4 0  9998,2 56488  70.0010 100.8216 0003080 259.7306 100.3505 14.98346236 71268,6950.143,96.106,574.148,569.867,0.0
56488.0,STARLINK-6204,PAYLOAD,2024-08-17 22:03:13,14.98340925,0.0002618,70.0025,98.6302,266.7932,93.2927,-0.00041128,-4.998e-05,0.0,0 STARLINK-6204,1 56488U 23064AS  24230.91890560 -.00004998  00000-0 -41128-3 0  9996,2 56488  70.0025  98.6302 0002618 266.7932  93.2927 14.98340925 71035,6950.159,96.106,573.844,570.205,0.0
56488.0,STARLINK-6204,PAYLOAD,2024-08-18 01:15:29,14.98338923,0.0003055,69.9996,98.2957,258.4701,101.6116,-0.00011179,-1.427e-05,0.0,0 STARLINK-6204,1 56488U 23064AS  24231.05242817 -.00001427  00000-0 -11179-3 0  9995,2 56488  69.9996  98.2957 0003055 258.4701 101.6116 14.98338923 71410,6950.165,96.106,574.154,569.907,0.0
56488.0,STARLINK-6204,PAYLOAD,2024-08-18 22:05:13,14.98340752,0.0002997,69.9997,96.1076,258.4755,101.6068,0.00021814,2.511e-05,0.0,0 STARLINK-6204,1 56488U 23064AS  24231.92029642  .00002511  00000-0  21814-3 0  9990,2 56488  69.9997  96.1076 0002997 258.4755 101.6068 14.98340752 71186,6950.16,96.106,574.108,569.942,0.0
56488.0,STARLINK-6204,PAYLOAD,2024-08-19 01:17:29,14.98343126,0.0002985,70.001,95.7713,259.8755,100.2067,0.0002977,3.462e-05,0.0,0 STARLINK-6204,1 56488U 23064AS  24232.05381721  .00003462  00000-0  29770-3 0  9999,2 56488  70.0010  95.7713 0002985 259.8755 100.2067 14.98343126 71564,6950.152,96.106,574.092,569.943,0.0
56488.0,STARLINK-6204,PAYLOAD,2024-08-19 07:42:02,14.98338136,0.0002539,70.0028,95.0927,291.7229,68.3659,0.00011335,1.26e-05,0.0,0 STARLINK-6204,1 56488U 23064AS  24232.32086066  .00001260  00000-0  11335-3 0  9995,2 56488  70.0028  95.0927 0002539 291.7229  68.3659 14.98338136 71600,6950.168,96.106,573.797,570.268,0.0
56488.0,STARLINK-6204,PAYLOAD,2024-08-19 14:06:34,14.98337045,0.0002512,70.0035,94.4265,268.1696,91.9175,-9.2017e-05,-1.191e-05,0.0,0 STARLINK-6204,1 56488U 23064AS  24232.58790271 -.00001191  00000-0 -92017-4 0  9995,2 56488  70.0035  94.4265 0002512 268.1696  91.9175 14.98337045 71280,6950.171,96.107,573.782,570.29,0.0
56488.0,STARLINK-6204,PAYLOAD,2024-08-20 01:19:31,14.9832734,0.0002975,70.0006,93.247,260.6764,99.4059,-6.6749e-05,-8.89e-06,0.0,0 STARLINK-6204,1 56488U 23064AS  24233.05522510 -.00000889  00000-0 -66749-4 0  9993,2 56488  70.0006  93.2470 0002975 260.6764  99.4059 14.98327340 71718,6950.201,96.107,574.134,569.998,0.0
56488.0,STARLINK-6204,PAYLOAD,2024-08-20 07:44:03,14.98331307,0.0002909,70.0005,92.5735,264.2062,95.8766,3.1039e-05,2.77e-06,0.0,0 STARLINK-6204,1 56488U 23064AS  24233.32226377  .00000277  00000-0  31039-4 0  9998,2 56488  70.0005  92.5735 0002909 264.2062  95.8766 14.98331307 71398,6950.189,96.107,574.076,570.032,0.0
56488.0,STARLINK-6204,PAYLOAD,2024-08-20 20:33:07,14.98339192,0.000302,70.0004,91.2271,261.9623,98.1193,9.5156e-05,1.043e-05,0.0,0 STARLINK-6204,1 56488U 23064AS  24233.85633804  .00001043  00000-0  95156-4 0  9995,2 56488  70.0004  91.2271 0003020 261.9623  98.1193 14.98339192 71839,6950.164,96.106,574.128,569.931,0.0
